DUCHIFAT-1              
1 40021U 14033M   26169.68438844  .00088318  00000+0  89916-3 0  9990
2 40021  98.0447 229.0553 0002814 113.8680 246.2872 15.64848252655988
NANOSATC-BR1            
1 40024U 14033Q   26170.55757160  .00013791  00000+0  45551-3 0  9996
2 40024  98.0718 203.1557 0004579 156.7506 203.3942 15.31519483654348
QB50P1                  
1 40025U 14033R   26170.25905701  .00006785  00000+0  33444-3 0  9993
2 40025  98.0964 181.5504 0008005 207.6997 152.3810 15.18285787653349
DTUSAT-2                
1 40030U 14033W   26170.54953937  .00005935  00000+0  32126-3 0  9997
2 40030  98.0865 168.4264 0006872 216.2454 143.8312 15.15041809653047
QB50P2                  
1 40032U 14033Y   26170.47756064  .00006408  00000+0  34511-3 0  9999
2 40032  98.0755 167.5004 0008192 156.5164 203.6442 15.15183403653013
PERSEUS-M1              
1 40039U 14033AF  26170.57845526  .00001374  00000+0  12899-3 0  9991
2 40039  97.9640 114.7493 0010133 292.2356  67.7790 14.95636995650991
POLYITAN-1              
1 40042U 14033AJ  26170.33641670  .00016256  00000+0  50656-3 0  9991
2 40042  98.0941 196.8009 0008752 135.2104 224.9844 15.33319639653925
TIGRISAT                
1 40043U 14033AK  26170.47394176  .00001548  00000+0  18306-3 0  9997
2 40043  97.7834 320.4330 0050515  67.8951 292.7617 14.85169819645964
CANX-4                  
1 40055U 14034C   26170.58371055  .00000663  00000+0  92291-4 0  9997
2 40055  98.3119  45.9848 0012989   9.5361 350.6094 14.81268197644882
CANX-5                  
1 40056U 14034D   26170.58211587  .00000672  00000+0  93471-4 0  9992
2 40056  98.3120  46.0268 0012988   9.7788 350.3674 14.81285489635690
GONETS-M 10             
1 40063U 14036C   26170.64624017 -.00000018  00000+0 -19919-3 0  9995
2 40063  82.5121 306.1465 0022743 135.4611 224.8302 12.42945388542556
METEOR-M 2              
1 40069U 14037A   26170.60925378 -.00000061  00000+0 -88174-5 0  9991
2 40069  98.5119 146.2620 0006661  38.4035 321.7617 14.21461662619665
DX1                     
1 40071U 14037C   26170.57756586  .00001332  00000+0  14463-3 0  9991
2 40071  98.3872 132.4243 0005655 265.9238  94.1332 14.89990357646469
UKUBE-1                 
1 40074U 14037F   26170.54821292  .00007009  00000+0  39481-3 0  9992
2 40074  98.4239 174.0682 0002749 127.9455 232.2022 15.13585482648918
GAOFEN-2                
1 40118U 14049A   26170.60878360  .00000984  00000+0  13417-3 0  9995
2 40118  98.0104 234.8140 0006283 217.1838 142.8940 14.80902130639597
BRITE-PL2 (HEWELIUSZ)   
1 40119U 14049B   26170.58252109  .00001660  00000+0  15858-3 0  9993
2 40119  97.9101 282.6009 0015364 101.3495 258.9452 14.94600826641807
CBERS 4                 
1 40336U 14079A   26170.61618296  .00000353  00000+0  13728-3 0  9996
2 40336  98.3525 227.3719 0001764  61.9623 298.1741 14.35510706604303
SMAP                    
1 40376U 15003A   26170.54143949  .00000314  00000+0  69770-4 0  9994
2 40376  98.1276 177.6026 0001352  96.9426 263.1930 14.63368307607964
GONETS-M 11             
1 40552U 15020A   26170.58428741  .00000155  00000+0  10489-2 0  9993
2 40552  82.4863  29.4976 0016497   0.6987 359.4113 12.42878035509036
GONETS-M 12             
1 40553U 15020B   26170.63824802  .00000075  00000+0  46805-3 0  9991
2 40553  82.4897  30.5886 0015209 345.6896  14.3751 12.42891644509034
GONETS-M 13             
1 40554U 15020C   26170.61177137  .00000121  00000+0  80176-3 0  9993
2 40554  82.4859  29.2193 0013543 330.9727  29.0598 12.42871102509004
DMC3-FM1                
1 40715U 15032A   26170.56254411  .00000054  00000+0  12168-4 0  9992
2 40715  97.6452  35.6438 0006841  53.5747 306.6099 14.85738973590261
DMC3-FM2                
1 40716U 15032B   26170.58458765  .00000649  00000+0  80629-4 0  9990
2 40716  97.6506  37.2401 0007444  58.1632 302.0307 14.85746572590260
DMC3-FM3                
1 40717U 15032C   26170.60792884  .00000822  00000+0  10059-3 0  9999
2 40717  97.6560  39.0176 0006749  58.5517 301.6358 14.85738150590278
CARBONITE 1 (CBNT-1)    
1 40718U 15032D   26170.61054878  .00001085  00000+0  13761-3 0  9990
2 40718  97.6508 348.5750 0013047 289.4968  70.4836 14.83593085589703
LILACSAT-2              
1 40908U 15049K   26170.59415252  .00014195  00000+0  24156-3 0  9999
2 40908  97.4640 207.5275 0005657 233.6644 126.4086 15.51509945596126
